2024-085D               
1 59680U 24085D   24149.88928563  .00010209  00000+0  45184-3 0  9992
2 59680  97.4042 224.3814 0014495 185.0205 175.0888 15.21759713  3308
2024-085E               
1 59681U 24085E   24149.91010058  .00010047  00000+0  29227-3 0  9998
2 59681  97.3730 224.7426 0055011 276.0814  83.4162 15.34108824  3336
STARLINK-32108          
1 59682U 24086A   24149.41667824  .00215784  00000+0  16373-2 0  9996
2 59682  42.9991 165.9773 0000188  85.9125 211.3181 15.70905518  4238
STARLINK-32080          
1 59683U 24086B   24149.91668981 -.01694094  00000+0 -19937-1 0  9993
2 59683  42.9995 163.1208 0001474 266.7338 276.1439 15.63874609  4323
STARLINK-32091          
1 59684U 24086C   24149.91668981 -.00002590  00000+0 -54781-4 0  9996
2 59684  43.0000 164.4510 0001463 275.0186  84.6264 15.40684380  4323
STARLINK-32085          
1 59685U 24086D   24149.51703675  .00020940  00000+0  36153-3 0  9992
2 59685  42.9989 166.6112 0002222 221.6056 138.4636 15.50599298  4232
STARLINK-32100          
1 59686U 24086E   24149.91668981 -.01593579  00000+0 -11417-1 0  9997
2 59686  42.9991 162.5203 0001440 275.9435 149.4147 15.75482527  4340
STARLINK-32089          
1 59687U 24086F   24148.55017855 -.00191940  00000+0 -33782-2 0  9990
2 59687  42.9991 172.2554 0001105  19.7345 340.3558 15.50317040  4124
STARLINK-32103          
1 59688U 24086G   24149.91668981  .00007791  00000+0  19360-3 0  9999
2 59688  42.9996 164.5716 0000791 255.4009  54.4745 15.40696114  4313
STARLINK-32105          
1 59689U 24086H   24149.00002315  .00059467  00000+0  11942-2 0  9997
2 59689  43.0006 169.6550 0001499 260.5542  82.7975 15.45831351  4166
STARLINK-32106          
1 59690U 24086J   24149.91668981  .00027274  00000+0  65800-3 0  9990
2 59690  42.9996 164.5422 0000742 328.6410 353.6823 15.40692802  4316
STARLINK-32090          
1 59691U 24086K   24149.90181747  .00048300  00000+0  82308-3 0  9995
2 59691  42.9996 164.3378 0000495 264.5988  95.4816 15.50612258  4331
STARLINK-32095          
1 59692U 24086L   24149.53485989  .00070607  00000+0  79108-3 0  9999
2 59692  42.9991 165.8692 0001070 132.5249 227.5706 15.61778252  4285
STARLINK-32088          
1 59693U 24086M   24149.33334491  .00001313  00000+0  38669-4 0  9995
2 59693  43.0005 167.8468 0001488 267.2847  80.5780 15.40724413  4231
STARLINK-32107          
1 59694U 24086N   24149.90044617  .00019338  00000+0  33450-3 0  9995
2 59694  42.9992 164.3243 0001095 273.8652  86.2082 15.50590314  4330
STARLINK-32104          
1 59695U 24086P   24149.91668981 -.00058091  00000+0 -13926-2 0  9999
2 59695  43.0001 164.3904 0002273 266.1997 118.2985 15.40726744  4317
STARLINK-32094          
1 59696U 24086Q   24149.91668981 -.02157600  00000+0 -48316-1 0  9998
2 59696  43.0006 163.8395 0001328 258.4904 350.2965 15.46327615  4106
STARLINK-32099          
1 59697U 24086R   24149.83334491  .00000674  00000+0  23443-4 0  9997
2 59697  43.0005 164.8083 0001557 317.9639 348.9767 15.40643221  4316
STARLINK-32096          
1 59698U 24086S   24149.89873048  .00016016  00000+0  27817-3 0  9995
2 59698  42.9997 164.3103 0001466 260.9359  99.1336 15.50589287  4339
STARLINK-32102          
1 59699U 24086T   24148.93284691  .00042728  00000+0  72926-3 0  9990
2 59699  42.9997 169.9621 0001206 273.3200  86.7522 15.50614681  4180
STARLINK-32092          
1 59700U 24086U   24149.89770257  .00047763  00000+0  81441-3 0  9993
2 59700  42.9998 164.3034 0001499 259.4453 100.6238 15.50599451  4334
STARLINK-32093          
1 59701U 24086V   24149.51189918  .00029337  00000+0  50409-3 0  9998
2 59701  42.9997 166.5661 0001505 257.4720 102.5972 15.50574307  4279
STARLINK-32087          
1 59702U 24086W   24149.89714808 -.00161969  00000+0 -28516-2 0  9995
2 59702  42.9997 164.2984 0003129 256.0071 104.0441 15.50184418  4336
STARLINK-32086          
1 59703U 24086X   24149.91668981 -.00038238  00000+0 -91193-3 0  9993
2 59703  43.0000 164.4192 0001283 245.0566 127.0020 15.40725660  4251
STARLINK-32098          
1 59704U 24086Y   24149.89735878  .00028801  00000+0  49461-3 0  9995
2 59704  43.0000 164.3000 0001212 237.4042 122.6701 15.50597861  4332
CZ-3B R/B               
1 59707U 24087C   24148.02286635  .00033724  00000+0  12226-2 0  9993
2 59707  53.2001 193.8157 6091317 231.3719  56.5934  3.97420511   798
STARLINK-11107 [DTC]    
1 59708U 24088A   24149.85028014  .00017845  00000+0  82054-4 0  9996
2 59708  53.1646 291.5267 0000929 138.9885 221.1209 15.83762773  4077
STARLINK-11088 [DTC]    
1 59709U 24088B   24149.91668981 -.00015101  00000+0 -88386-4 0  9996
2 59709  53.1640 291.2354 0001073 142.0454 217.3342 15.76740168  4098
STARLINK-11092 [DTC]    
1 59710U 24088C   24149.91668981 -.00006250  00000+0 -34208-4 0  9997
2 59710  53.1633 291.2103 0000904  40.2040 330.8466 15.76735144  4104
STARLINK-11082 [DTC]    
1 59711U 24088D   24149.91668981 -.00439954  00000+0 -27968-2 0  9992
2 59711  53.1635 291.1866 0001480  48.5539 334.1964 15.76954973  4086
STARLINK-11108 [DTC]    
1 59712U 24088E   24149.91668981 -.00167534  00000+0 -10396-2 0  9992
2 59712  53.1633 291.1613 0003662 346.0777  48.6263 15.76721170  4090
STARLINK-11100 [DTC]    
1 59713U 24088F   24149.78185051 -.00734566  00000+0 -44769-2 0  9996
2 59713  53.1636 291.8067 0002077  31.5182 328.5964 15.78657783  4176
STARLINK-11094 [DTC]    
1 59714U 24088G   24149.91668981 -.00135755  00000+0 -83982-3 0  9996
2 59714  53.1629 291.1118 0002551  51.1022   7.2786 15.76693316  4046
STARLINK-11101 [DTC]    
1 59715U 24088H   24149.91668981  .00003800  00000+0  27209-4 0  9991
2 59715  53.1628 291.0640 0000961   0.7513  80.7042 15.76720121  4072
STARLINK-11099 [DTC]    
1 59716U 24088J   24149.91668981 -.00041181  00000+0 -24863-3 0  9990
2 59716  53.1630 291.0887 0001192   4.1786  65.4952 15.76746665  4099
STARLINK-11084 [DTC]    
1 59717U 24088K   24149.91668981 -.00035351  00000+0 -21276-3 0  9998
2 59717  53.1626 291.0395 0000615  43.3729  49.8387 15.76743652  4091
STARLINK-11103 [DTC]    
1 59718U 24088L   24149.89821789 -.00679240  00000+0 -40810-2 0  9998
2 59718  53.1632 291.1042 0001666  34.4293 325.6836 15.78832480  4198
STARLINK-11096 [DTC]    
1 59719U 24088M   24149.89618254 -.00695551  00000+0 -41981-2 0  9993
2 59719  53.1630 291.0926 0001340 143.7942 216.3171 15.78776913  4197
STARLINK-11095 [DTC]    
1 59720U 24088N   24149.91668981 -.00044390  00000+0 -26839-3 0  9995
2 59720  53.1618 290.9658 0000541  35.6062  92.9789 15.76750489  4099
STARLINK-31834          
1 59721U 24088P   24149.91668981 -.01723026  00000+0 -23320-1 0  9997
2 59721  53.1600 291.8502 0000832  81.4299 327.8605 15.60077325  3947
STARLINK-31843          
1 59722U 24088Q   24149.91668981 -.01722196  00000+0 -23764-1 0  9997
2 59722  53.1594 291.8584 0001002  74.4652 330.2409 15.59572204  3949
STARLINK-31766          
1 59723U 24088R   24149.91668981 -.01723194  00000+0 -24231-1 0  9997
2 59723  53.1599 291.8673 0001091  77.2196 322.8206 15.59081015  3943
STARLINK-31836          
1 59724U 24088S   24149.91668981 -.01720277  00000+0 -24622-1 0  9991
2 59724  53.1599 291.8712 0000946  81.0166 316.4117 15.58613909  4040
STARLINK-31820          
1 59725U 24088T   24149.91668981 -.01715277  00000+0 -24548-1 0  9993
2 59725  53.1598 291.8690 0000528  74.9946 324.3506 15.58611102  3949
STARLINK-31642          
1 59726U 24088U   24149.91668981 -.01719471  00000+0 -24610-1 0  9994
2 59726  53.1599 291.8769 0000885  80.5972 314.9151 15.58613494  3943
STARLINK-31827          
1 59727U 24088V   24149.91668981 -.01720207  00000+0 -24621-1 0  9996
2 59727  53.1591 291.8645 0000939  81.7071 319.5534 15.58613815  4159
SHIYAN 23 (SY-23)       
1 59728U 24089A   24149.95312088  .00001066  00000+0  11537-3 0  9992
2 59728  97.7650 156.9861 0007239 181.3943 178.7256 14.90289042  2516
CZ-4C R/B               
1 59729U 24089B   24149.94484642  .00007059  00000+0  33519-3 0  9990
2 59729  97.7602 157.6160 0103773 339.7876  19.9260 15.14852117  2559
STARLINK-31472          
1 59730U 24090A   24149.91668981 -.01688178  00000+0 -19227-1 0  9999
2 59730  42.9999 284.4195 0001712 276.7745  88.3432 15.64676493  3653
STARLINK-31817          
1 59731U 24090B   24149.91668981 -.01681719  00000+0 -19146-1 0  9994
2 59731  42.9999 284.4139 0002074 277.5401  89.5443 15.64668933  3714
STARLINK-31841          
1 59732U 24090C   24149.91668981 -.01685620  00000+0 -19200-1 0  9991
2 59732  42.9998 284.4087 0001757 275.3218  93.7304 15.64668038  3703
STARLINK-31833          
1 59733U 24090D   24149.91668981 -.01685483  00000+0 -19203-1 0  9992
2 59733  42.9998 284.4041 0001592 277.7378  93.2843 15.64663689  3647
STARLINK-31849          
1 59734U 24090E   24149.91668981 -.01686512  00000+0 -19217-1 0  9992
2 59734  42.9998 284.3987 0001793 275.5883  97.4016 15.64660592  3712
STARLINK-31661          
1 59735U 24090F   24149.91668981 -.01688605  00000+0 -19248-1 0  9992
2 59735  42.9997 284.3942 0001611 275.8015  99.1586 15.64657640  3678
STARLINK-31707          
1 59736U 24090G   24149.91668981 -.01677351  00000+0 -19108-1 0  9994
2 59736  42.9997 284.3894 0001974 282.4569  94.4747 15.64646003  3730
STARLINK-31821          
1 59737U 24090H   24149.91668981 -.01690567  00000+0 -19277-1 0  9996
2 59737  42.9999 284.3836 0001655 272.6873 106.2080 15.64652578  3651
STARLINK-31819          
1 59738U 24090J   24149.91668981 -.01689725  00000+0 -19271-1 0  9995
2 59738  42.9998 284.3789 0001588 274.9563 105.9083 15.64646979  3673
STARLINK-31726          
1 59739U 24090K   24149.84980518 -.05497491  00000+0 -87986-1 0  9990
2 59739  42.9994 284.7866 0048006 164.3240 195.9121 15.55683626  3694
